{
    "links": {
        "self": "http://www.neowsapp.com/rest/v1/neo/3413075?api_key=iIulBulltgU6a56xZRHN4H3l9WmuAYTsLGpBGhQ2"
    },
    "id": "3413075",
    "neo_reference_id": "3413075",
    "name": "(2008 LC)",
    "designation": "2008 LC",
    "nasa_jpl_url": "http://ssd.jpl.nasa.gov/sbdb.cgi?sstr=3413075",
    "absolute_magnitude_h": 24.6,
    "estimated_diameter": {
        "kilometers": {
            "estimated_diameter_min": 0.0319561887,
            "estimated_diameter_max": 0.0714562102
        },
        "meters": {
            "estimated_diameter_min": 31.9561886721,
            "estimated_diameter_max": 71.4562101727
        },
        "miles": {
            "estimated_diameter_min": 0.0198566489,
            "estimated_diameter_max": 0.0444008168
        },
        "feet": {
            "estimated_diameter_min": 104.8431420431,
            "estimated_diameter_max": 234.436392583
        }
    },
    "is_potentially_hazardous_asteroid": false,
    "close_approach_data": [
        {
            "close_approach_date": "2008-06-17",
            "close_approach_date_full": "2008-Jun-17 05:25",
            "epoch_date_close_approach": 1213680300000,
            "relative_velocity": {
                "kilometers_per_second": "9.6015999263",
                "kilometers_per_hour": "34565.7597346122",
                "miles_per_hour": "21477.8188750983"
            },
            "miss_distance": {
                "astronomical": "0.0252250747",
                "lunar": "9.8125540583",
                "kilometers": "3773617.445710889",
                "miles": "2344817.1501487082"
            },
            "orbiting_body": "Earth"
        },
        {
            "close_approach_date": "2011-09-12",
            "close_approach_date_full": "2011-Sep-12 01:03",
            "epoch_date_close_approach": 1315789380000,
            "relative_velocity": {
                "kilometers_per_second": "21.6384993987",
                "kilometers_per_hour": "77898.5978353211",
                "miles_per_hour": "48403.1593049527"
            },
            "miss_distance": {
                "astronomical": "0.4846130169",
                "lunar": "188.5144635741",
                "kilometers": "72497075.102514003",
                "miles": "45047593.5840311214"
            },
            "orbiting_body": "Earth"
        }
    ],
    "orbital_data": {
        "orbit_id": "15",
        "orbit_determination_date": "2017-04-06 09:03:19",
        "first_observation_date": "2008-06-01",
        "last_observation_date": "2008-06-13",
        "data_arc_in_days": 12,
        "observations_used": 57,
        "orbit_uncertainty": "8",
        "minimum_orbit_intersection": ".0236692",
        "jupiter_tisserand_invariant": "3.518",
        "epoch_osculation": "2454623.5",
        "eccentricity": ".5269763539313727",
        "semi_major_axis": "2.130160107618996",
        "inclination": "8.614843320967987",
        "ascending_node_longitude": "81.94551455859188",
        "orbital_period": "1135.577548990587",
        "perihelion_distance": "1.007616100815877",
        "perihelion_argument": "207.9673607053611",
        "aphelion_distance": "3.252704114422114",
        "perihelion_time": "2454654.342189799416",
        "mean_anomaly": "350.2224305705415",
        "mean_motion": ".3170193002846907",
        "equinox": "J2000",
        "orbit_class": {
            "orbit_class_type": "APO",
            "orbit_class_description": "Near-Earth asteroid orbits which cross the Earth’s orbit similar to that of 1862 Apollo",
            "orbit_class_range": "a (semi-major axis) > 1.0 AU; q (perihelion) < 1.017 AU"
        }
    },
    "is_sentry_object": false
}